[{"OBJECT_NAME":"GPS BIIR-2  (PRN 13)","OBJECT_ID":"1997-035A","EPOCH":"2026-03-04T00:01:54.372000","MEAN_MOTION":2.00563957,"ECCENTRICITY":0.00979337,"INCLINATION":55.9351,"RA_OF_ASC_NODE":102.6869,"ARG_OF_PERICENTER":56.2678,"MEAN_ANOMALY":304.7419,"EPHEMERIS_TYPE":0,"CLASSIFICATION_TYPE":"U","NORAD_CAT_ID":24876,"ELEMENT_SET_NO":999,"REV_AT_EPOCH":20984,"BSTAR":0,"MEAN_MOTION_DOT":2.0e-7,"MEAN_MOTION_DDOT":0},{"OBJECT_NAME":"GPS BIIR-5  (PRN 22)","OBJECT_ID":"2000-040A","EPOCH":"2026-03-03T19:59:28.570848","MEAN_MOTION":2.00568901,"ECCENTRICITY":0.01227147,"INCLINATION":54.8757,"RA_OF_ASC_NODE":219.3443,"ARG_OF_PERICENTER":302.5295,"MEAN_ANOMALY":230.0729,"EPHEMERIS_TYPE":0,"CLASSIFICATION_TYPE":"U","NORAD_CAT_ID":26407,"ELEMENT_SET_NO":999,"REV_AT_EPOCH":18783,"BSTAR":0,"MEAN_MOTION_DOT":-4.0e-8,"MEAN_MOTION_DDOT":0},{"OBJECT_NAME":"GPS BIIR-8  (PRN 16)","OBJECT_ID":"2003-005A","EPOCH":"2026-03-03T10:05:42.894240","MEAN_MOTION":2.00566304,"ECCENTRICITY":0.01487341,"INCLINATION":54.9076,"RA_OF_ASC_NODE":219.1686,"ARG_OF_PERICENTER":52.7101,"MEAN_ANOMALY":318.0754,"EPHEMERIS_TYPE":0,"CLASSIFICATION_TYPE":"U","NORAD_CAT_ID":27663,"ELEMENT_SET_NO":999,"REV_AT_EPOCH":16919,"BSTAR":0,"MEAN_MOTION_DOT":-5.0e-8,"MEAN_MOTION_DDOT":0},{"OBJECT_NAME":"GPS BIIR-11 (PRN 19)","OBJECT_ID":"2004-009A","EPOCH":"2026-03-03T22:28:18.321888","MEAN_MOTION":2.00558102,"ECCENTRICITY":0.01109397,"INCLINATION":54.9161,"RA_OF_ASC_NODE":279.9387,"ARG_OF_PERICENTER":169.0537,"MEAN_ANOMALY":10.0125,"EPHEMERIS_TYPE":0,"CLASSIFICATION_TYPE":"U","NORAD_CAT_ID":28190,"ELEMENT_SET_NO":999,"REV_AT_EPOCH":16083,"BSTAR":0,"MEAN_MOTION_DOT":-1.8e-7,"MEAN_MOTION_DDOT":0},{"OBJECT_NAME":"GPS BIIR-13 (PRN 02)","OBJECT_ID":"2004-045A","EPOCH":"2026-03-03T14:17:36.434112","MEAN_MOTION":2.00573334,"ECCENTRICITY":0.0170861,"INCLINATION":55.1952,"RA_OF_ASC_NODE":329.1518,"ARG_OF_PERICENTER":312.7942,"MEAN_ANOMALY":43.5969,"EPHEMERIS_TYPE":0,"CLASSIFICATION_TYPE":"U","NORAD_CAT_ID":28474,"ELEMENT_SET_NO":999,"REV_AT_EPOCH":15630,"BSTAR":0,"MEAN_MOTION_DOT":-9.1e-7,"MEAN_MOTION_DDOT":0},{"OBJECT_NAME":"GPS BIIRM-1 (PRN 17)","OBJECT_ID":"2005-038A","EPOCH":"2026-03-02T08:19:20.265312","MEAN_MOTION":2.00573091,"ECCENTRICITY":0.01288568,"INCLINATION":54.9646,"RA_OF_ASC_NODE":277.4881,"ARG_OF_PERICENTER":295.3112,"MEAN_ANOMALY":199.7188,"EPHEMERIS_TYPE":0,"CLASSIFICATION_TYPE":"U","NORAD_CAT_ID":28874,"ELEMENT_SET_NO":999,"REV_AT_EPOCH":14969,"BSTAR":0,"MEAN_MOTION_DOT":-1.0e-8,"MEAN_MOTION_DDOT":0},{"OBJECT_NAME":"INMARSAT 4-F2 (SOUTHPAN/PRN 122)","OBJECT_ID":"2005-044A","EPOCH":"2026-03-03T19:53:32.620992","MEAN_MOTION":1.00271478,"ECCENTRICITY":0.00026191,"INCLINATION":4.9565,"RA_OF_ASC_NODE":43.804,"ARG_OF_PERICENTER":317.3778,"MEAN_ANOMALY":242.2859,"EPHEMERIS_TYPE":0,"CLASSIFICATION_TYPE":"U","NORAD_CAT_ID":28899,"ELEMENT_SET_NO":999,"REV_AT_EPOCH":7446,"BSTAR":0,"MEAN_MOTION_DOT":-2.71e-6,"MEAN_MOTION_DDOT":0},{"OBJECT_NAME":"GPS BIIRM-2 (PRN 31)","OBJECT_ID":"2006-042A","EPOCH":"2026-03-03T07:34:28.641792","MEAN_MOTION":2.00575364,"ECCENTRICITY":0.01067493,"INCLINATION":54.6983,"RA_OF_ASC_NODE":155.5433,"ARG_OF_PERICENTER":52.8742,"MEAN_ANOMALY":318.7308,"EPHEMERIS_TYPE":0,"CLASSIFICATION_TYPE":"U","NORAD_CAT_ID":29486,"ELEMENT_SET_NO":999,"REV_AT_EPOCH":14227,"BSTAR":0,"MEAN_MOTION_DOT":-4.0e-8,"MEAN_MOTION_DDOT":0},{"OBJECT_NAME":"GPS BIIRM-3 (PRN 12)","OBJECT_ID":"2006-052A","EPOCH":"2026-03-03T17:09:51.858720","MEAN_MOTION":2.00551577,"ECCENTRICITY":0.00878804,"INCLINATION":54.9574,"RA_OF_ASC_NODE":218.1844,"ARG_OF_PERICENTER":89.3488,"MEAN_ANOMALY":271.6075,"EPHEMERIS_TYPE":0,"CLASSIFICATION_TYPE":"U","NORAD_CAT_ID":29601,"ELEMENT_SET_NO":999,"REV_AT_EPOCH":14129,"BSTAR":0,"MEAN_MOTION_DOT":-5.0e-8,"MEAN_MOTION_DDOT":0},{"OBJECT_NAME":"GPS BIIRM-4 (PRN 15)","OBJECT_ID":"2007-047A","EPOCH":"2026-03-03T12:33:46.154304","MEAN_MOTION":2.00560744,"ECCENTRICITY":0.01635949,"INCLINATION":54.015,"RA_OF_ASC_NODE":84.4198,"ARG_OF_PERICENTER":85.9453,"MEAN_ANOMALY":275.986,"EPHEMERIS_TYPE":0,"CLASSIFICATION_TYPE":"U","NORAD_CAT_ID":32260,"ELEMENT_SET_NO":999,"REV_AT_EPOCH":13469,"BSTAR":0,"MEAN_MOTION_DOT":3.0e-8,"MEAN_MOTION_DDOT":0},{"OBJECT_NAME":"COSMOS 2433 (720)","OBJECT_ID":"2007-052A","EPOCH":"2026-03-02T20:43:19.102656","MEAN_MOTION":2.13103856,"ECCENTRICITY":0.00022251,"INCLINATION":65.6357,"RA_OF_ASC_NODE":319.5137,"ARG_OF_PERICENTER":271.4287,"MEAN_ANOMALY":88.6025,"EPHEMERIS_TYPE":0,"CLASSIFICATION_TYPE":"U","NORAD_CAT_ID":32275,"ELEMENT_SET_NO":999,"REV_AT_EPOCH":14279,"BSTAR":0,"MEAN_MOTION_DOT":-5.0e-7,"MEAN_MOTION_DDOT":0},{"OBJECT_NAME":"COSMOS 2432 (719)","OBJECT_ID":"2007-052B","EPOCH":"2026-03-03T22:03:34.325856","MEAN_MOTION":2.13102981,"ECCENTRICITY":0.00106297,"INCLINATION":65.6511,"RA_OF_ASC_NODE":319.6039,"ARG_OF_PERICENTER":330.1271,"MEAN_ANOMALY":64.0556,"EPHEMERIS_TYPE":0,"CLASSIFICATION_TYPE":"U","NORAD_CAT_ID":32276,"ELEMENT_SET_NO":999,"REV_AT_EPOCH":14284,"BSTAR":0,"MEAN_MOTION_DOT":-5.3e-7,"MEAN_MOTION_DDOT":0},{"OBJECT_NAME":"GPS BIIRM-5 (PRN 29)","OBJECT_ID":"2007-062A","EPOCH":"2026-03-03T13:54:58.972608","MEAN_MOTION":2.00553462,"ECCENTRICITY":0.0032908,"INCLINATION":55.1154,"RA_OF_ASC_NODE":278.3967,"ARG_OF_PERICENTER":160.6521,"MEAN_ANOMALY":8.1657,"EPHEMERIS_TYPE":0,"CLASSIFICATION_TYPE":"U","NORAD_CAT_ID":32384,"ELEMENT_SET_NO":999,"REV_AT_EPOCH":13339,"BSTAR":0,"MEAN_MOTION_DOT":-1.3e-7,"MEAN_MOTION_DDOT":0},{"OBJECT_NAME":"COSMOS 2434 (721)","OBJECT_ID":"2007-065A","EPOCH":"2026-03-03T05:53:42.951264","MEAN_MOTION":2.1310116,"ECCENTRICITY":0.00038293,"INCLINATION":64.3184,"RA_OF_ASC_NODE":195.4861,"ARG_OF_PERICENTER":70.2306,"MEAN_ANOMALY":113.341,"EPHEMERIS_TYPE":0,"CLASSIFICATION_TYPE":"U","NORAD_CAT_ID":32393,"ELEMENT_SET_NO":999,"REV_AT_EPOCH":14151,"BSTAR":0,"MEAN_MOTION_DOT":-8.0e-8,"MEAN_MOTION_DDOT":0},{"OBJECT_NAME":"COSMOS 2436 (723)","OBJECT_ID":"2007-065C","EPOCH":"2026-03-03T00:10:46.448256","MEAN_MOTION":2.1309997,"ECCENTRICITY":0.0017539,"INCLINATION":64.3269,"RA_OF_ASC_NODE":195.5651,"ARG_OF_PERICENTER":7.5258,"MEAN_ANOMALY":126.086,"EPHEMERIS_TYPE":0,"CLASSIFICATION_TYPE":"U","NORAD_CAT_ID":32395,"ELEMENT_SET_NO":999,"REV_AT_EPOCH":14146,"BSTAR":0,"MEAN_MOTION_DOT":-1.0e-7,"MEAN_MOTION_DDOT":0},{"OBJECT_NAME":"GPS BIIRM-6 (PRN 07)","OBJECT_ID":"2008-012A","EPOCH":"2026-03-03T10:36:06.615072","MEAN_MOTION":2.00569135,"ECCENTRICITY":0.02069181,"INCLINATION":54.4823,"RA_OF_ASC_NODE":154.1506,"ARG_OF_PERICENTER":246.1685,"MEAN_ANOMALY":111.6763,"EPHEMERIS_TYPE":0,"CLASSIFICATION_TYPE":"U","NORAD_CAT_ID":32711,"ELEMENT_SET_NO":999,"REV_AT_EPOCH":13163,"BSTAR":0,"MEAN_MOTION_DOT":-2.0e-8,"MEAN_MOTION_DDOT":0},{"OBJECT_NAME":"GPS BIIRM-8 (PRN 05)","OBJECT_ID":"2009-043A","EPOCH":"2026-03-03T22:21:33.365952","MEAN_MOTION":2.00560448,"ECCENTRICITY":0.00516954,"INCLINATION":56.1479,"RA_OF_ASC_NODE":31.5862,"ARG_OF_PERICENTER":80.7054,"MEAN_ANOMALY":288.9637,"EPHEMERIS_TYPE":0,"CLASSIFICATION_TYPE":"U","NORAD_CAT_ID":35752,"ELEMENT_SET_NO":999,"REV_AT_EPOCH":12125,"BSTAR":0,"MEAN_MOTION_DOT":-8.4e-7,"MEAN_MOTION_DDOT":0}]
